[{"OBJECT_NAME":"HULIANWANG DIGUI-121","OBJECT_ID":"2025-295C","EPOCH":"2026-03-09T17:50:59.597376","MEAN_MOTION":13.43290785,"ECCENTRICITY":5.705e-5,"INCLINATION":50.0015,"RA_OF_ASC_NODE":22.8244,"ARG_OF_PERICENTER":285.1467,"MEAN_ANOMALY":74.9348,"EPHEMERIS_TYPE":0,"CLASSIFICATION_TYPE":"U","NORAD_CAT_ID":67061,"ELEMENT_SET_NO":999,"REV_AT_EPOCH":1226,"BSTAR":0.00011384894,"MEAN_MOTION_DOT":-6.3e-7,"MEAN_MOTION_DDOT":0},{"OBJECT_NAME":"COSMOS 970 DEB","OBJECT_ID":"1977-121CC","EPOCH":"2026-03-09T02:57:35.256672","MEAN_MOTION":13.62561452,"ECCENTRICITY":0.01122056,"INCLINATION":65.7387,"RA_OF_ASC_NODE":295.0047,"ARG_OF_PERICENTER":276.7444,"MEAN_ANOMALY":166.6576,"EPHEMERIS_TYPE":0,"CLASSIFICATION_TYPE":"U","NORAD_CAT_ID":64967,"ELEMENT_SET_NO":999,"REV_AT_EPOCH":61120,"BSTAR":0.00014091093,"MEAN_MOTION_DOT":3.5e-7,"MEAN_MOTION_DDOT":0}]
